[{"OBJECT_NAME":"GALAXY 19 (G-19)","OBJECT_ID":"2008-045A","EPOCH":"2026-03-04T07:20:38.672160","MEAN_MOTION":1.00271876,"ECCENTRICITY":0.00031276,"INCLINATION":0.0498,"RA_OF_ASC_NODE":264.9776,"ARG_OF_PERICENTER":91.8237,"MEAN_ANOMALY":178.3953,"EPHEMERIS_TYPE":0,"CLASSIFICATION_TYPE":"U","NORAD_CAT_ID":33376,"ELEMENT_SET_NO":999,"REV_AT_EPOCH":6385,"BSTAR":0,"MEAN_MOTION_DOT":-1.51e-6,"MEAN_MOTION_DDOT":0},{"OBJECT_NAME":"ASTRA 1M","OBJECT_ID":"2008-057A","EPOCH":"2026-03-04T17:49:16.243104","MEAN_MOTION":1.00274143,"ECCENTRICITY":8.73e-5,"INCLINATION":0.0356,"RA_OF_ASC_NODE":61.4724,"ARG_OF_PERICENTER":11.6234,"MEAN_ANOMALY":15.8987,"EPHEMERIS_TYPE":0,"CLASSIFICATION_TYPE":"U","NORAD_CAT_ID":33436,"ELEMENT_SET_NO":999,"REV_AT_EPOCH":4468,"BSTAR":0,"MEAN_MOTION_DOT":1.1e-6,"MEAN_MOTION_DDOT":0},{"OBJECT_NAME":"EUTELSAT HOTBIRD 13C","OBJECT_ID":"2008-065A","EPOCH":"2026-03-04T08:14:38.476896","MEAN_MOTION":1.00269044,"ECCENTRICITY":0.00038543,"INCLINATION":2.6811,"RA_OF_ASC_NODE":80.4486,"ARG_OF_PERICENTER":275.2309,"MEAN_ANOMALY":239.7378,"EPHEMERIS_TYPE":0,"CLASSIFICATION_TYPE":"U","NORAD_CAT_ID":33459,"ELEMENT_SET_NO":999,"REV_AT_EPOCH":4629,"BSTAR":0,"MEAN_MOTION_DOT":-2.93e-6,"MEAN_MOTION_DDOT":0},{"OBJECT_NAME":"EXPRESS-AM44","OBJECT_ID":"2009-007A","EPOCH":"2026-03-04T03:42:54.231840","MEAN_MOTION":1.00271886,"ECCENTRICITY":0.0004316,"INCLINATION":3.1937,"RA_OF_ASC_NODE":79.6948,"ARG_OF_PERICENTER":257.4284,"MEAN_ANOMALY":229.497,"EPHEMERIS_TYPE":0,"CLASSIFICATION_TYPE":"U","NORAD_CAT_ID":33595,"ELEMENT_SET_NO":999,"REV_AT_EPOCH":5123,"BSTAR":0,"MEAN_MOTION_DOT":-1.0e-6,"MEAN_MOTION_DDOT":0},{"OBJECT_NAME":"NSS-9","OBJECT_ID":"2009-008A","EPOCH":"2026-03-04T14:49:38.633664","MEAN_MOTION":1.00273151,"ECCENTRICITY":0.000216,"INCLINATION":0.9913,"RA_OF_ASC_NODE":83.7021,"ARG_OF_PERICENTER":254.7826,"MEAN_ANOMALY":229.3478,"EPHEMERIS_TYPE":0,"CLASSIFICATION_TYPE":"U","NORAD_CAT_ID":33749,"ELEMENT_SET_NO":999,"REV_AT_EPOCH":6247,"BSTAR":0,"MEAN_MOTION_DOT":6.1e-7,"MEAN_MOTION_DDOT":0},{"OBJECT_NAME":"TELSTAR 11N","OBJECT_ID":"2009-009A","EPOCH":"2026-03-04T08:06:38.530080","MEAN_MOTION":1.00271929,"ECCENTRICITY":0.00023413,"INCLINATION":0.0202,"RA_OF_ASC_NODE":137.5392,"ARG_OF_PERICENTER":194.5952,"MEAN_ANOMALY":274.0492,"EPHEMERIS_TYPE":0,"CLASSIFICATION_TYPE":"U","NORAD_CAT_ID":34111,"ELEMENT_SET_NO":999,"REV_AT_EPOCH":4519,"BSTAR":0,"MEAN_MOTION_DOT":-2.63e-6,"MEAN_MOTION_DDOT":0},{"OBJECT_NAME":"WGS F2 (USA 204)","OBJECT_ID":"2009-017A","EPOCH":"2026-03-04T14:35:16.467936","MEAN_MOTION":1.00270134,"ECCENTRICITY":5.28e-5,"INCLINATION":0.025,"RA_OF_ASC_NODE":141.8078,"ARG_OF_PERICENTER":231.7537,"MEAN_ANOMALY":65.1282,"EPHEMERIS_TYPE":0,"CLASSIFICATION_TYPE":"U","NORAD_CAT_ID":34713,"ELEMENT_SET_NO":999,"REV_AT_EPOCH":4456,"BSTAR":0,"MEAN_MOTION_DOT":0,"MEAN_MOTION_DDOT":0},{"OBJECT_NAME":"SES-7 (PROTOSTAR 2)","OBJECT_ID":"2009-027A","EPOCH":"2026-03-04T19:31:48.027648","MEAN_MOTION":1.00271449,"ECCENTRICITY":0.000153,"INCLINATION":0.0203,"RA_OF_ASC_NODE":102.404,"ARG_OF_PERICENTER":202.6705,"MEAN_ANOMALY":258.6817,"EPHEMERIS_TYPE":0,"CLASSIFICATION_TYPE":"U","NORAD_CAT_ID":34941,"ELEMENT_SET_NO":999,"REV_AT_EPOCH":6158,"BSTAR":0,"MEAN_MOTION_DOT":-3.55e-6,"MEAN_MOTION_DDOT":0},{"OBJECT_NAME":"MEASAT-3A","OBJECT_ID":"2009-032A","EPOCH":"2026-03-04T16:28:38.707104","MEAN_MOTION":1.00271717,"ECCENTRICITY":0.0003546,"INCLINATION":0.0408,"RA_OF_ASC_NODE":353.5122,"ARG_OF_PERICENTER":357.7342,"MEAN_ANOMALY":218.3327,"EPHEMERIS_TYPE":0,"CLASSIFICATION_TYPE":"U","NORAD_CAT_ID":35362,"ELEMENT_SET_NO":999,"REV_AT_EPOCH":698,"BSTAR":0,"MEAN_MOTION_DOT":-1.21e-6,"MEAN_MOTION_DDOT":0},{"OBJECT_NAME":"GOES 14","OBJECT_ID":"2009-033A","EPOCH":"2026-03-04T13:06:38.680128","MEAN_MOTION":1.00124457,"ECCENTRICITY":0.0002261,"INCLINATION":1.4193,"RA_OF_ASC_NODE":84.42,"ARG_OF_PERICENTER":298.8338,"MEAN_ANOMALY":177.4573,"EPHEMERIS_TYPE":0,"CLASSIFICATION_TYPE":"U","NORAD_CAT_ID":35491,"ELEMENT_SET_NO":999,"REV_AT_EPOCH":554,"BSTAR":0,"MEAN_MOTION_DOT":1.18e-6,"MEAN_MOTION_DDOT":0},{"OBJECT_NAME":"FM-5","OBJECT_ID":"2009-034A","EPOCH":"2026-03-04T15:31:06.557952","MEAN_MOTION":1.00270141,"ECCENTRICITY":8.42e-5,"INCLINATION":0.039,"RA_OF_ASC_NODE":273.672,"ARG_OF_PERICENTER":315.9649,"MEAN_ANOMALY":79.3535,"EPHEMERIS_TYPE":0,"CLASSIFICATION_TYPE":"U","NORAD_CAT_ID":35493,"ELEMENT_SET_NO":999,"REV_AT_EPOCH":4559,"BSTAR":0,"MEAN_MOTION_DOT":-2.11e-6,"MEAN_MOTION_DDOT":0},{"OBJECT_NAME":"TERRESTAR-1","OBJECT_ID":"2009-035A","EPOCH":"2026-03-04T11:43:38.558208","MEAN_MOTION":1.00272115,"ECCENTRICITY":0.0002934,"INCLINATION":5.0953,"RA_OF_ASC_NODE":48.8345,"ARG_OF_PERICENTER":301.3248,"MEAN_ANOMALY":236.9811,"EPHEMERIS_TYPE":0,"CLASSIFICATION_TYPE":"U","NORAD_CAT_ID":35496,"ELEMENT_SET_NO":999,"REV_AT_EPOCH":6108,"BSTAR":0,"MEAN_MOTION_DOT":-6.5e-7,"MEAN_MOTION_DDOT":0},{"OBJECT_NAME":"ASIASAT 5","OBJECT_ID":"2009-042A","EPOCH":"2026-03-04T21:52:09.720768","MEAN_MOTION":1.00271426,"ECCENTRICITY":0.0001473,"INCLINATION":0.0244,"RA_OF_ASC_NODE":232.4493,"ARG_OF_PERICENTER":99.568,"MEAN_ANOMALY":259.1905,"EPHEMERIS_TYPE":0,"CLASSIFICATION_TYPE":"U","NORAD_CAT_ID":35696,"ELEMENT_SET_NO":999,"REV_AT_EPOCH":6066,"BSTAR":0,"MEAN_MOTION_DOT":-3.17e-6,"MEAN_MOTION_DDOT":0},{"OBJECT_NAME":"JCSAT-12 (JCSAT-RA)","OBJECT_ID":"2009-044A","EPOCH":"2026-03-04T17:32:38.522688","MEAN_MOTION":1.00270761,"ECCENTRICITY":0.0001907,"INCLINATION":0.0194,"RA_OF_ASC_NODE":115.35,"ARG_OF_PERICENTER":188.1111,"MEAN_ANOMALY":254.2033,"EPHEMERIS_TYPE":0,"CLASSIFICATION_TYPE":"U","NORAD_CAT_ID":35755,"ELEMENT_SET_NO":999,"REV_AT_EPOCH":6056,"BSTAR":0,"MEAN_MOTION_DOT":-3.38e-6,"MEAN_MOTION_DDOT":0},{"OBJECT_NAME":"OPTUS D3","OBJECT_ID":"2009-044B","EPOCH":"2026-03-04T12:15:38.797344","MEAN_MOTION":1.00272076,"ECCENTRICITY":0.00030076,"INCLINATION":0.8824,"RA_OF_ASC_NODE":269.6032,"ARG_OF_PERICENTER":67.9537,"MEAN_ANOMALY":164.7054,"EPHEMERIS_TYPE":0,"CLASSIFICATION_TYPE":"U","NORAD_CAT_ID":35756,"ELEMENT_SET_NO":999,"REV_AT_EPOCH":6051,"BSTAR":0,"MEAN_MOTION_DOT":-1.58e-6,"MEAN_MOTION_DDOT":0},{"OBJECT_NAME":"NIMIQ 5","OBJECT_ID":"2009-050A","EPOCH":"2026-03-04T06:04:38.703072","MEAN_MOTION":1.00273376,"ECCENTRICITY":0.00026413,"INCLINATION":0.0535,"RA_OF_ASC_NODE":271.2017,"ARG_OF_PERICENTER":72.4525,"MEAN_ANOMALY":196.7895,"EPHEMERIS_TYPE":0,"CLASSIFICATION_TYPE":"U","NORAD_CAT_ID":35873,"ELEMENT_SET_NO":999,"REV_AT_EPOCH":6029,"BSTAR":0,"MEAN_MOTION_DOT":-2.69e-6,"MEAN_MOTION_DDOT":0},{"OBJECT_NAME":"AMAZONAS 2","OBJECT_ID":"2009-054A","EPOCH":"2026-03-04T03:36:38.720160","MEAN_MOTION":1.00272824,"ECCENTRICITY":0.00034786,"INCLINATION":1.5427,"RA_OF_ASC_NODE":84.4755,"ARG_OF_PERICENTER":258.9264,"MEAN_ANOMALY":171.8575,"EPHEMERIS_TYPE":0,"CLASSIFICATION_TYPE":"U","NORAD_CAT_ID":35942,"ELEMENT_SET_NO":999,"REV_AT_EPOCH":6013,"BSTAR":0,"MEAN_MOTION_DOT":-2.95e-6,"MEAN_MOTION_DDOT":0}]
